start=new Date('2022-08-31T00:00:00.000Z').valueOf();
sats=[{"TLE_LINE1":"1 49168U 21082AQ  22242.62894933  .00006541  00000-0  55557-3 0  9993","REF_FRAME":"TEME","EPOCH":"2022-08-30T15:05:41.222112","SEMIMAJOR_AXIS":"6950.216","APOAPSIS":"574.473","RA_OF_ASC_NODE":"279.5886","MEAN_ELEMENT_THEORY":"SGP4","EPHEMERIS_TYPE":"0","MEAN_MOTION_DDOT":"0.0000000000000","GP_ID":"211362303","CENTER_NAME":"EARTH","INCLINATION":"69.9983","BSTAR":"0.00055557000000","NORAD_CAT_ID":"49168","ELEMENT_SET_NO":"999","FILE":"3552179","DECAY_DATE":null,"TLE_LINE2":"2 49168  69.9983 279.5886 0003441 256.1288 103.9489 14.98322395 54888","SITE":"AFWTR","ARG_OF_PERICENTER":"256.1288","PERIOD":"96.107","OBJECT_ID":"2021-082AQ","OBJECT_NAME":"STARLINK-3101","CLASSIFICATION_TYPE":"U","MEAN_ANOMALY":"103.9489","RCS_SIZE":"LARGE","LAUNCH_DATE":"2021-09-14","MEAN_MOTION_DOT":"0.00006541","PERIAPSIS":"569.690","COUNTRY_CODE":"US","OBJECT_TYPE":"PAYLOAD","REV_AT_EPOCH":"5488","TIME_SYSTEM":"UTC","ECCENTRICITY":"0.00034410","MEAN_MOTION":"14.98322395"},{"TLE_LINE2":"2 49169  69.9993 279.5782 0003379 260.7726  99.3051 14.98333011 53680","SITE":"AFWTR","OBJECT_NAME":"STARLINK-3046","OBJECT_ID":"2021-082AR","ARG_OF_PERICENTER":"260.7726","PERIOD":"96.107","CLASSIFICATION_TYPE":"U","MEAN_ANOMALY":"99.3051","PERIAPSIS":"569.700","LAUNCH_DATE":"2021-09-14","MEAN_MOTION_DOT":"-0.00002561","RCS_SIZE":"LARGE","COUNTRY_CODE":"US","OBJECT_TYPE":"PAYLOAD","REV_AT_EPOCH":"5368","TIME_SYSTEM":"UTC","ECCENTRICITY":"0.00033790","MEAN_MOTION":"14.98333011","TLE_LINE1":"1 49169U 21082AR  22242.63371114 -.00002561  00000-0 -20685-3 0  9990","REF_FRAME":"TEME","EPOCH":"2022-08-30T15:12:32.642496","SEMIMAJOR_AXIS":"6950.184","APOAPSIS":"574.397","RA_OF_ASC_NODE":"279.5782","MEAN_ELEMENT_THEORY":"SGP4","MEAN_MOTION_DDOT":"0.0000000000000","GP_ID":"211362053","EPHEMERIS_TYPE":"0","CENTER_NAME":"EARTH","INCLINATION":"69.9993","BSTAR":"-0.00020685000000","NORAD_CAT_ID":"49169","FILE":"3552179","DECAY_DATE":null,"ELEMENT_SET_NO":"999"},{"COUNTRY_CODE":"US","OBJECT_TYPE":"PAYLOAD","MEAN_ANOMALY":"107.1848","RCS_SIZE":"LARGE","PERIAPSIS":"569.709","LAUNCH_DATE":"2021-09-14","MEAN_MOTION_DOT":"0.00001267","PERIOD":"96.106","ARG_OF_PERICENTER":"252.8947","OBJECT_ID":"2021-082AS","OBJECT_NAME":"STARLINK-3074","CLASSIFICATION_TYPE":"U","TLE_LINE2":"2 49170  69.9988 299.5476 0003326 252.8947 107.1848 14.98342060 53199","SITE":"AFWTR","MEAN_MOTION":"14.98342060","ECCENTRICITY":"0.00033260","TIME_SYSTEM":"UTC","REV_AT_EPOCH":"5319","APOAPSIS":"574.332","EPOCH":"2022-08-30T15:21:24.815520","SEMIMAJOR_AXIS":"6950.156","REF_FRAME":"TEME","TLE_LINE1":"1 49170U 21082AS  22242.63987055  .00001267  00000-0  11389-3 0  9990","ELEMENT_SET_NO":"999","FILE":"3552179","DECAY_DATE":null,"INCLINATION":"69.9988","NORAD_CAT_ID":"49170","BSTAR":"0.00011389000000","EPHEMERIS_TYPE":"0","MEAN_MOTION_DDOT":"0.0000000000000","GP_ID":"211360801","CENTER_NAME":"EARTH","RA_OF_ASC_NODE":"299.5476","MEAN_ELEMENT_THEORY":"SGP4"},{"TLE_LINE1":"1 49171U 21082AT  22242.45866551 -.00000126  00000-0 -27543-5 0  9994","REF_FRAME":"TEME","SEMIMAJOR_AXIS":"6950.207","EPOCH":"2022-08-30T11:00:28.700064","APOAPSIS":"574.485","RA_OF_ASC_NODE":"300.0144","MEAN_ELEMENT_THEORY":"SGP4","CENTER_NAME":"EARTH","MEAN_MOTION_DDOT":"0.0000000000000","GP_ID":"211329347","EPHEMERIS_TYPE":"0","BSTAR":"-0.00000275430000","NORAD_CAT_ID":"49171","INCLINATION":"69.9993","FILE":"3551880","DECAY_DATE":null,"ELEMENT_SET_NO":"999","SITE":"AFWTR","TLE_LINE2":"2 49171  69.9993 300.0144 0003473 257.9348 102.1422 14.98325566 54321","CLASSIFICATION_TYPE":"U","OBJECT_ID":"2021-082AT","OBJECT_NAME":"STARLINK-3107","ARG_OF_PERICENTER":"257.9348","PERIOD":"96.107","MEAN_MOTION_DOT":"-0.00000126","LAUNCH_DATE":"2021-09-14","PERIAPSIS":"569.658","RCS_SIZE":"LARGE","MEAN_ANOMALY":"102.1422","OBJECT_TYPE":"PAYLOAD","COUNTRY_CODE":"US","REV_AT_EPOCH":"5432","TIME_SYSTEM":"UTC","ECCENTRICITY":"0.00034730","MEAN_MOTION":"14.98325566"},{"CENTER_NAME":"EARTH","EPHEMERIS_TYPE":"0","MEAN_MOTION_DDOT":"0.0000000000000","GP_ID":"211329597","MEAN_ELEMENT_THEORY":"SGP4","RA_OF_ASC_NODE":"279.9920","ELEMENT_SET_NO":"999","DECAY_DATE":null,"FILE":"3551880","NORAD_CAT_ID":"49172","BSTAR":"-0.00006304800000","INCLINATION":"69.9985","REF_FRAME":"TEME","TLE_LINE1":"1 49172U 21082AU  22242.46953410 -.00000845  00000-0 -63048-4 0  9994","APOAPSIS":"574.400","SEMIMAJOR_AXIS":"6950.212","EPOCH":"2022-08-30T11:16:07.746240","TIME_SYSTEM":"UTC","REV_AT_EPOCH":"5365","MEAN_MOTION":"14.98323843","ECCENTRICITY":"0.00033420","CLASSIFICATION_TYPE":"U","PERIOD":"96.107","ARG_OF_PERICENTER":"256.7001","OBJECT_ID":"2021-082AU","OBJECT_NAME":"STARLINK-3091","SITE":"AFWTR","TLE_LINE2":"2 49172  69.9985 279.9920 0003342 256.7001 103.3786 14.98323843 53654","OBJECT_TYPE":"PAYLOAD","COUNTRY_CODE":"US","RCS_SIZE":"LARGE","LAUNCH_DATE":"2021-09-14","PERIAPSIS":"569.754","MEAN_MOTION_DOT":"-0.00000845","MEAN_ANOMALY":"103.3786"},{"SITE":"AFWTR","TLE_LINE2":"2 49173  69.9980 279.9315 0003053 259.8157 100.2657 14.98333167 53667","CLASSIFICATION_TYPE":"U","OBJECT_NAME":"STARLINK-3045","OBJECT_ID":"2021-082AV","PERIOD":"96.107","ARG_OF_PERICENTER":"259.8157","PERIAPSIS":"569.926","LAUNCH_DATE":"2021-09-14","MEAN_MOTION_DOT":"-0.00000565","RCS_SIZE":"LARGE","MEAN_ANOMALY":"100.2657","OBJECT_TYPE":"PAYLOAD","COUNTRY_CODE":"US","REV_AT_EPOCH":"5366","TIME_SYSTEM":"UTC","ECCENTRICITY":"0.00030530","MEAN_MOTION":"14.98333167","TLE_LINE1":"1 49173U 21082AV  22242.49065376 -.00000565  00000-0 -39552-4 0  9995","REF_FRAME":"TEME","SEMIMAJOR_AXIS":"6950.183","EPOCH":"2022-08-30T11:46:32.484864","APOAPSIS":"574.170","RA_OF_ASC_NODE":"279.9315","MEAN_ELEMENT_THEORY":"SGP4","CENTER_NAME":"EARTH","MEAN_MOTION_DDOT":"0.0000000000000","GP_ID":"211330344","EPHEMERIS_TYPE":"0","BSTAR":"-0.00003955200000","NORAD_CAT_ID":"49173","INCLINATION":"69.9980","FILE":"3551880","DECAY_DATE":null,"ELEMENT_SET_NO":"999"},{"CENTER_NAME":"EARTH","EPHEMERIS_TYPE":"0","GP_ID":"211330591","MEAN_MOTION_DDOT":"0.0000000000000","MEAN_ELEMENT_THEORY":"SGP4","RA_OF_ASC_NODE":"279.9054","ELEMENT_SET_NO":"999","DECAY_DATE":null,"FILE":"3551880","BSTAR":"0.00013349000000","NORAD_CAT_ID":"49174","INCLINATION":"69.9981","REF_FRAME":"TEME","TLE_LINE1":"1 49174U 21082AW  22242.48080077  .00001453  00000-0  13349-3 0  9990","APOAPSIS":"577.155","SEMIMAJOR_AXIS":"6953.860","EPOCH":"2022-08-30T11:32:21.186528","TIME_SYSTEM":"UTC","REV_AT_EPOCH":"5483","MEAN_MOTION":"14.97145078","ECCENTRICITY":"0.00020570","CLASSIFICATION_TYPE":"U","PERIOD":"96.183","ARG_OF_PERICENTER":"267.8181","OBJECT_ID":"2021-082AW","OBJECT_NAME":"STARLINK-3047","SITE":"AFWTR","TLE_LINE2":"2 49174  69.9981 279.9054 0002057 267.8181  92.2742 14.97145078 54834","OBJECT_TYPE":"PAYLOAD","COUNTRY_CODE":"US","RCS_SIZE":"LARGE","LAUNCH_DATE":"2021-09-14","MEAN_MOTION_DOT":"0.00001453","PERIAPSIS":"574.294","MEAN_ANOMALY":"92.2742"},{"MEAN_MOTION":"14.98323692","ECCENTRICITY":"0.00032860","TIME_SYSTEM":"UTC","REV_AT_EPOCH":"5365","COUNTRY_CODE":"US","OBJECT_TYPE":"PAYLOAD","MEAN_ANOMALY":"103.4749","RCS_SIZE":"LARGE","MEAN_MOTION_DOT":"0.00000892","LAUNCH_DATE":"2021-09-14","PERIAPSIS":"569.794","ARG_OF_PERICENTER":"256.6043","PERIOD":"96.107","OBJECT_ID":"2021-082AX","OBJECT_NAME":"STARLINK-3087","CLASSIFICATION_TYPE":"U","TLE_LINE2":"2 49175  69.9989 280.0410 0003286 256.6043 103.4749 14.98323692 53652","SITE":"AFWTR","ELEMENT_SET_NO":"999","DECAY_DATE":null,"FILE":"3551880","INCLINATION":"69.9989","BSTAR":"0.00008258300000","NORAD_CAT_ID":"49175","EPHEMERIS_TYPE":"0","MEAN_MOTION_DDOT":"0.0000000000000","GP_ID":"211329848","CENTER_NAME":"EARTH","RA_OF_ASC_NODE":"280.0410","MEAN_ELEMENT_THEORY":"SGP4","APOAPSIS":"574.361","EPOCH":"2022-08-30T10:48:41.574816","SEMIMAJOR_AXIS":"6950.212","REF_FRAME":"TEME","TLE_LINE1":"1 49175U 21082AX  22242.45048119  .00000892  00000-0  82583-4 0  9992"},{"REF_FRAME":"TEME","TLE_LINE1":"1 49176U 21082AY  22242.46678574  .00000952  00000-0  91173-4 0  9990","APOAPSIS":"579.195","EPOCH":"2022-08-30T11:12:10.287936","SEMIMAJOR_AXIS":"6955.151","EPHEMERIS_TYPE":"0","GP_ID":"211330098","MEAN_MOTION_DDOT":"0.0000000000000","CENTER_NAME":"EARTH","RA_OF_ASC_NODE":"259.7529","MEAN_ELEMENT_THEORY":"SGP4","ELEMENT_SET_NO":"999","FILE":"3551880","DECAY_DATE":null,"INCLINATION":"69.9991","NORAD_CAT_ID":"49176","BSTAR":"0.00009117300000","PERIOD":"96.210","ARG_OF_PERICENTER":"263.9262","OBJECT_ID":"2021-082AY","OBJECT_NAME":"STARLINK-3069","CLASSIFICATION_TYPE":"U","TLE_LINE2":"2 49176  69.9991 259.7529 0003134 263.9262  96.1539 14.96728202 54151","SITE":"AFWTR","COUNTRY_CODE":"US","OBJECT_TYPE":"PAYLOAD","MEAN_ANOMALY":"96.1539","RCS_SIZE":"LARGE","MEAN_MOTION_DOT":"0.00000952","LAUNCH_DATE":"2021-09-14","PERIAPSIS":"574.836","TIME_SYSTEM":"UTC","REV_AT_EPOCH":"5415","MEAN_MOTION":"14.96728202","ECCENTRICITY":"0.00031340"},{"OBJECT_TYPE":"PAYLOAD","COUNTRY_CODE":"US","RCS_SIZE":"LARGE","MEAN_MOTION_DOT":"0.00000391","LAUNCH_DATE":"2021-09-14","PERIAPSIS":"574.885","MEAN_ANOMALY":"105.5325","CLASSIFICATION_TYPE":"U","PERIOD":"96.211","ARG_OF_PERICENTER":"254.5489","OBJECT_ID":"2021-082AZ","OBJECT_NAME":"STARLINK-3103","SITE":"AFWTR","TLE_LINE2":"2 49177  69.9998 259.7086 0003112 254.5489 105.5325 14.96717383 55359","MEAN_MOTION":"14.96717383","ECCENTRICITY":"0.00031120","TIME_SYSTEM":"UTC","REV_AT_EPOCH":"5535","APOAPSIS":"579.214","SEMIMAJOR_AXIS":"6955.184","EPOCH":"2022-08-30T11:40:21.422784","REF_FRAME":"TEME","TLE_LINE1":"1 49177U 21082AZ  22242.48635906  .00000391  00000-0  42136-4 0  9997","ELEMENT_SET_NO":"999","DECAY_DATE":null,"FILE":"3551880","BSTAR":"0.00004213600000","NORAD_CAT_ID":"49177","INCLINATION":"69.9998","CENTER_NAME":"EARTH","EPHEMERIS_TYPE":"0","GP_ID":"211330845","MEAN_MOTION_DDOT":"0.0000000000000","RA_OF_ASC_NODE":"259.7086","MEAN_ELEMENT_THEORY":"SGP4"}];
